{"type": "FeatureCollection", "features": [ {"type": "Feature", "properties": {"norad_id": 33841, "name": "COSMOS 2251 DEB", "group": "cosmos-2251-debris", "lat": 69.85447162290758, "lon": 19.844097310076187, "alt_km": 768.7519091164577, "timestamp": "2025-12-27T08:36:18.777476+00:00", "meta": {"OBJECT_NAME": "COSMOS 2251 DEB", "OBJECT_ID": "1993-036CJ", "EPOCH": "2025-12-27T03:49:39.204192", "MEAN_MOTION": 14.37880701, "ECCENTRICITY": 0.002109, "INCLINATION": 74.037, "RA_OF_ASC_NODE": 251.4934, "ARG_OF_PERICENTER": 329.2775, "MEAN_ANOMALY": 182.9242, "EPHEMERIS_TYPE": 0, "CLASSIFICATION_TYPE": "U", "NORAD_CAT_ID": 33841, "ELEMENT_SET_NO": 999, "REV_AT_EPOCH": 88321, "BSTAR": 0.0002308, "MEAN_MOTION_DOT": 6.72e-06, "MEAN_MOTION_DDOT": 0}, "tle": {"line1": "1 33841U 93036CJ  25361.15948153  .00000672  00000+0  23080-3 0  9993", "line2": "2 33841  74.0370 251.4934 0021090 329.2775 182.9242 14.37880701883216"}}, "geometry": {"type": "Point", "coordinates": [19.844097310076187, 69.85447162290758]}}, {"type": "Feature", "properties": {"norad_id": 33842, "name": "COSMOS 2251 DEB", "group": "cosmos-2251-debris", "lat": -65.46387458782785, "lon": 51.36515183063278, "alt_km": 732.6561693648828, "timestamp": "2025-12-27T08:36:18.777486+00:00", "meta": {"OBJECT_NAME": "COSMOS 2251 DEB", "OBJECT_ID": "1993-036CK", "EPOCH": "2025-12-26T23:07:12.101664", "MEAN_MOTION": 14.42724489, "ECCENTRICITY": 0.0047623, "INCLINATION": 74.0314, "RA_OF_ASC_NODE": 193.25, "ARG_OF_PERICENTER": 297.7777, "MEAN_ANOMALY": 61.8554, "EPHEMERIS_TYPE": 0, "CLASSIFICATION_TYPE": "U", "NORAD_CAT_ID": 33842, "ELEMENT_SET_NO": 999, "REV_AT_EPOCH": 88542, "BSTAR": 0.0003135, "MEAN_MOTION_DOT": 1.031e-05, "MEAN_MOTION_DDOT": 0}, "tle": {"line1": "1 33842U 93036CK  25360.96333451  .00001031  00000+0  31350-3 0  9990", "line2": "2 33842  74.0314 193.2500 0047623 297.7777  61.8554 14.42724489885420"}}, "geometry": {"type": "Point", "coordinates": [51.36515183063278, -65.46387458782785]}}, {"type": "Feature", "properties": {"norad_id": 33844, "name": "COSMOS 2251 DEB", "group": "cosmos-2251-debris", "lat": 64.61732838548659, "lon": 63.10979343961463, "alt_km": 742.2959593838905, "timestamp": "2025-12-27T08:36:18.777497+00:00", "meta": {"OBJECT_NAME": "COSMOS 2251 DEB", "OBJECT_ID": "1993-036CM", "EPOCH": "2025-12-27T03:31:17.946336", "MEAN_MOTION": 14.33745479, "ECCENTRICITY": 0.004727, "INCLINATION": 74.0663, "RA_OF_ASC_NODE": 26.4755, "ARG_OF_PERICENTER": 43.8466, "MEAN_ANOMALY": 13.0922, "EPHEMERIS_TYPE": 0, "CLASSIFICATION_TYPE": "U", "NORAD_CAT_ID": 33844, "ELEMENT_SET_NO": 999, "REV_AT_EPOCH": 87932, "BSTAR": 0.00041049, "MEAN_MOTION_DOT": 1.129e-05, "MEAN_MOTION_DDOT": 0}, "tle": {"line1": "1 33844U 93036CM  25361.14673549  .00001129  00000+0  41049-3 0  9992", "line2": "2 33844  74.0663  26.4755 0047270  43.8466  13.0922 14.33745479879323"}}, "geometry": {"type": "Point", "coordinates": [63.10979343961463, 64.61732838548659]}}, {"type": "Feature", "properties": {"norad_id": 33848, "name": "COSMOS 2251 DEB", "group": "cosmos-2251-debris", "lat": 68.3799259669318, "lon": 16.695745212468285, "alt_km": 719.6791160598668, "timestamp": "2025-12-27T08:36:18.777507+00:00", "meta": {"OBJECT_NAME": "COSMOS 2251 DEB", "OBJECT_ID": "1993-036CR", "EPOCH": "2025-12-27T00:15:34.662240", "MEAN_MOTION": 14.44166121, "ECCENTRICITY": 0.0042049, "INCLINATION": 74.0324, "RA_OF_ASC_NODE": 331.0877, "ARG_OF_PERICENTER": 22.9197, "MEAN_ANOMALY": 44.8307, "EPHEMERIS_TYPE": 0, "CLASSIFICATION_TYPE": "U", "NORAD_CAT_ID": 33848, "ELEMENT_SET_NO": 999, "REV_AT_EPOCH": 88037, "BSTAR": 0.0014509, "MEAN_MOTION_DOT": 5.007e-05, "MEAN_MOTION_DDOT": 0}, "tle": {"line1": "1 33848U 93036CR  25361.01081785  .00005007  00000+0  14509-2 0  9996", "line2": "2 33848  74.0324 331.0877 0042049  22.9197  44.8307 14.44166121880378"}}, "geometry": {"type": "Point", "coordinates": [16.695745212468285, 68.3799259669318]}}, {"type": "Feature", "properties": {"norad_id": 33892, "name": "COSMOS 2251 DEB", "group": "cosmos-2251-debris", "lat": -11.977759488009543, "lon": 71.85377838096522, "alt_km": 852.6622093886954, "timestamp": "2025-12-27T08:36:18.777517+00:00", "meta": {"OBJECT_NAME": "COSMOS 2251 DEB", "OBJECT_ID": "1993-036CV", "EPOCH": "2025-12-26T14:41:47.145408", "MEAN_MOTION": 14.23382284, "ECCENTRICITY": 0.0112013, "INCLINATION": 73.8026, "RA_OF_ASC_NODE": 76.75, "ARG_OF_PERICENTER": 105.2356, "MEAN_ANOMALY": 21.3871, "EPHEMERIS_TYPE": 0, "CLASSIFICATION_TYPE": "U", "NORAD_CAT_ID": 33892, "ELEMENT_SET_NO": 999, "REV_AT_EPOCH": 87152, "BSTAR": 0.00061113, "MEAN_MOTION_DOT": 1.453e-05, "MEAN_MOTION_DDOT": 0}, "tle": {"line1": "1 33892U 93036CV  25360.61235122  .00001453  00000+0  61113-3 0  9991", "line2": "2 33892  73.8026  76.7500 0112013 105.2356  21.3871 14.23382284871520"}}, "geometry": {"type": "Point", "coordinates": [71.85377838096522, -11.977759488009543]}}, {"type": "Feature", "properties": {"norad_id": 33894, "name": "COSMOS 2251 DEB", "group": "cosmos-2251-debris", "lat": -56.63177993663509, "lon": -59.79720749501724, "alt_km": 923.1013404949044, "timestamp": "2025-12-27T08:36:18.777528+00:00", "meta": {"OBJECT_NAME": "COSMOS 2251 DEB", "OBJECT_ID": "1993-036CX", "EPOCH": "2025-12-26T07:28:06.751200", "MEAN_MOTION": 13.21329669, "ECCENTRICITY": 0.0578513, "INCLINATION": 73.7663, "RA_OF_ASC_NODE": 328.0775, "ARG_OF_PERICENTER": 245.6983, "MEAN_ANOMALY": 108.2665, "EPHEMERIS_TYPE": 0, "CLASSIFICATION_TYPE": "U", "NORAD_CAT_ID": 33894, "ELEMENT_SET_NO": 999, "REV_AT_EPOCH": 80887, "BSTAR": 0.00063858, "MEAN_MOTION_DOT": 6.11e-06, "MEAN_MOTION_DDOT": 0}, "tle": {"line1": "1 33894U 93036CX  25360.31118925  .00000611  00000+0  63858-3 0  9994", "line2": "2 33894  73.7663 328.0775 0578513 245.6983 108.2665 13.21329669808870"}}, "geometry": {"type": "Point", "coordinates": [-59.79720749501724, -56.63177993663509]}}, {"type": "Feature", "properties": {"norad_id": 33896, "name": "COSMOS 2251 DEB", "group": "cosmos-2251-debris", "lat": -9.852060285281969, "lon": -46.95710354651364, "alt_km": 867.609064880251, "timestamp": "2025-12-27T08:36:18.777538+00:00", "meta": {"OBJECT_NAME": "COSMOS 2251 DEB", "OBJECT_ID": "1993-036CZ", "EPOCH": "2025-12-27T03:28:23.477088", "MEAN_MOTION": 14.19075036, "ECCENTRICITY": 0.0127306, "INCLINATION": 73.7667, "RA_OF_ASC_NODE": 130.5308, "ARG_OF_PERICENTER": 303.9149, "MEAN_ANOMALY": 235.5951, "EPHEMERIS_TYPE": 0, "CLASSIFICATION_TYPE": "U", "NORAD_CAT_ID": 33896, "ELEMENT_SET_NO": 999, "REV_AT_EPOCH": 86944, "BSTAR": 0.00077787, "MEAN_MOTION_DOT": 1.735e-05, "MEAN_MOTION_DDOT": 0}, "tle": {"line1": "1 33896U 93036CZ  25361.14471617  .00001735  00000+0  77787-3 0  9992", "line2": "2 33896  73.7667 130.5308 0127306 303.9149 235.5951 14.19075036869442"}}, "geometry": {"type": "Point", "coordinates": [-46.95710354651364, -9.852060285281969]}}, {"type": "Feature", "properties": {"norad_id": 33899, "name": "COSMOS 2251 DEB", "group": "cosmos-2251-debris", "lat": -74.03069162590614, "lon": -34.53328021413705, "alt_km": 731.115398785435, "timestamp": "2025-12-27T08:36:18.777548+00:00", "meta": {"OBJECT_NAME": "COSMOS 2251 DEB", "OBJECT_ID": "1993-036DC", "EPOCH": "2025-12-27T04:14:10.163328", "MEAN_MOTION": 14.61309845, "ECCENTRICITY": 0.0055856, "INCLINATION": 74.0533, "RA_OF_ASC_NODE": 58.1499, "ARG_OF_PERICENTER": 116.4994, "MEAN_ANOMALY": 275.2794, "EPHEMERIS_TYPE": 0, "CLASSIFICATION_TYPE": "U", "NORAD_CAT_ID": 33899, "ELEMENT_SET_NO": 999, "REV_AT_EPOCH": 89050, "BSTAR": 0.00089429, "MEAN_MOTION_DOT": 4.488e-05, "MEAN_MOTION_DDOT": 0}, "tle": {"line1": "1 33899U 93036DC  25361.17650652  .00004488  00000+0  89429-3 0  9990", "line2": "2 33899  74.0533  58.1499 0055856 116.4994 275.2794 14.61309845890504"}}, "geometry": {"type": "Point", "coordinates": [-34.53328021413705, -74.03069162590614]}}, {"type": "Feature", "properties": {"norad_id": 33900, "name": "COSMOS 2251 DEB", "group": "cosmos-2251-debris", "lat": 25.32086474568183, "lon": 144.21598960741406, "alt_km": 669.9131601334548, "timestamp": "2025-12-27T08:36:18.777558+00:00", "meta": {"OBJECT_NAME": "COSMOS 2251 DEB", "OBJECT_ID": "1993-036DD", "EPOCH": "2025-12-27T04:41:36.604320", "MEAN_MOTION": 14.58400366, "ECCENTRICITY": 0.0046281, "INCLINATION": 74.0196, "RA_OF_ASC_NODE": 332.3189, "ARG_OF_PERICENTER": 120.1333, "MEAN_ANOMALY": 257.6802, "EPHEMERIS_TYPE": 0, "CLASSIFICATION_TYPE": "U", "NORAD_CAT_ID": 33900, "ELEMENT_SET_NO": 999, "REV_AT_EPOCH": 89247, "BSTAR": 0.00051703, "MEAN_MOTION_DOT": 2.402e-05, "MEAN_MOTION_DDOT": 0}, "tle": {"line1": "1 33900U 93036DD  25361.19556255  .00002402  00000+0  51703-3 0  9997", "line2": "2 33900  74.0196 332.3189 0046281 120.1333 257.6802 14.58400366892474"}}, "geometry": {"type": "Point", "coordinates": [144.21598960741406, 25.32086474568183]}}, {"type": "Feature", "properties": {"norad_id": 33901, "name": "COSMOS 2251 DEB", "group": "cosmos-2251-debris", "lat": -37.44964527614392, "lon": 5.4281985367575505, "alt_km": 539.8447625734843, "timestamp": "2025-12-27T08:36:18.777568+00:00", "meta": {"OBJECT_NAME": "COSMOS 2251 DEB", "OBJECT_ID": "1993-036DE", "EPOCH": "2025-12-27T04:01:56.065728", "MEAN_MOTION": 15.17459134, "ECCENTRICITY": 0.0029692, "INCLINATION": 73.774, "RA_OF_ASC_NODE": 18.7208, "ARG_OF_PERICENTER": 147.5834, "MEAN_ANOMALY": 212.7193, "EPHEMERIS_TYPE": 0, "CLASSIFICATION_TYPE": "U", "NORAD_CAT_ID": 33901, "ELEMENT_SET_NO": 999, "REV_AT_EPOCH": 89732, "BSTAR": 0.0032094, "MEAN_MOTION_DOT": 0.00065552, "MEAN_MOTION_DDOT": 0}, "tle": {"line1": "1 33901U 93036DE  25361.16801002  .00065552  00000+0  32094-2 0  9994", "line2": "2 33901  73.7740  18.7208 0029692 147.5834 212.7193 15.17459134897326"}}, "geometry": {"type": "Point", "coordinates": [5.4281985367575505, -37.44964527614392]}}]}